1 45103U 20006BM  23226.12639818  .00033684  00000-0  15397-2 0  9995
2 45103  53.0505 129.2757 0001805 108.3529 251.7663 15.20274851196054
1 45103U 20006BM  23227.70412191  .00031555  00000-0  14395-2 0  9995
2 45103  53.0508 122.0386 0001705 112.5685 247.5490 15.20375863196297
1 45103U 20006BM  23229.08454711  .00033456  00000-0  15212-2 0  9993
2 45103  53.0510 115.7071 0001527 111.4053 248.7105 15.20461093196500
1 45103U 20006BM  23230.07051963  .00029003  00000-0  13194-2 0  9996
2 45103  53.0511 111.1828 0001463 113.4637 246.6512 15.20515163196653
1 45103U 20006BM  23230.79353366  .00036428  00000-0  16486-2 0  9993
2 45103  53.0506 107.8640 0001267 117.4274 242.6850 15.20580556196765
1 45103U 20006BM  23231.05643688  .00054814  00000-0  24637-2 0  9998
2 45103  53.0509 106.6586 0001482 116.6055 243.5092 15.20628178196807
1 45103U 20006BM  23231.77938608  .00054023  00000-0  24212-2 0  9997
2 45103  53.0511 103.3410 0001265 119.2857 240.8265 15.20733585196911
1 45103U 20006BM  23232.04226625  .00057983  00000-0  25937-2 0  9990
2 45103  53.0508 102.1335 0001212 122.1359 237.9754 15.20766623196955
1 45103U 20006BM  23233.02800977  .00065809  00000-0  29268-2 0  9994
2 45103  53.0515  97.6072 0000985 130.6130 229.4951 15.20905422197101
1 45103U 20006BM  23234.93354114  .00062970  00000-0  27818-2 0  9997
2 45103  53.0530  88.8562 0000621 143.5972 216.5065 15.21155913197395
1 45103U 20006BM  23235.98473374  .00063249  00000-0  27828-2 0  9994
2 45103  53.0539  84.0280 0000549 163.1550 196.9464 15.21292462197214
1 45103U 20006BM  23237.75840342  .00067680  00000-0  29539-2 0  9998
2 45103  53.0550  75.8799 0000151 250.4737 109.6242 15.21535063197825
1 45103U 20006BM  23237.82408920  .00068139  00000-0  29730-2 0  9991
2 45103  53.0549  75.5778 0000252 238.0307 122.0664 15.21542342197492
1 45103U 20006BM  23237.95546064  .00068029  00000-0  29668-2 0  9995
2 45103  53.0550  74.9743 0000215 248.3205 111.7768 15.21559306197510
1 45103U 20006BM  23238.74367955  .00044111  00000-0  19325-2 0  9998
2 45103  53.0556  71.3518 0000538  19.7578 340.3438 15.21604355197977
1 45103U 20006BM  23238.80936055  .00026860  00000-0  11855-2 0  9999
2 45103  53.0558  71.0483 0000498 221.4098 138.6860 15.21593425197647
1 45103U 20006BM  23238.80936055  .00026860  00000-0  11855-2 0  9999
2 45103  53.0558  71.0483 0000498 221.4098 138.6860 15.21593425197984
1 45103U 20006BM  23239.72893428  .00015065  00000-0  67200-3 0  9998
2 45103  53.0551  66.8248 0000303 276.7522  83.3439 15.21607312198124
1 45103U 20006BM  23239.79461744  .00014438  00000-0  64464-3 0  9999
2 45103  53.0553  66.5229 0000285 276.2934  83.8029 15.21608277197796
1 45103U 20006BM  23240.77985837  .00011867  00000-0  53227-3 0  9991
2 45103  53.0558  61.9957 0000371 331.3035  28.7940 15.21629440197941
1 45103U 20006BM  23240.77985837  .00011867  00000-0  53227-3 0  9991
2 45103  53.0558  61.9957 0000371 331.3035  28.7940 15.21629440198289
1 45103U 20006BM  23241.76508257  .00011793  00000-0  52866-3 0  9994
2 45103  53.0563  57.4676 0000510 343.9250  16.1730 15.21653953198099
1 45103U 20006BM  23241.96212554  .00011662  00000-0  52287-3 0  9990
2 45103  53.0563  56.5619 0000534 344.7020  15.3959 15.21658819198467
1 45103U 20006BM  23242.75029136  .00011802  00000-0  52869-3 0  9992
2 45103  53.0569  52.9394 0000649 349.4982  10.6000 15.21677883198242
1 45103U 20006BM  23243.47276824  .00011444  00000-0  51284-3 0  9992
2 45103  53.0574  49.6185 0000747 353.4590   6.6396 15.21694607198356
1 45103U 20006BM  23243.47276824  .00011444  00000-0  51284-3 0  9992
2 45103  53.0574  49.6185 0000747 353.4590   6.6396 15.21694607198693
1 45103U 20006BM  23244.45794880  .00013436  00000-0  59898-3 0  9990
2 45103  53.0581  45.0922 0001103 351.2896   8.8080 15.21722819198503
1 45103U 20006BM  23244.72066007  .00013933  00000-0  62044-3 0  9992
2 45103  53.0584  43.8845 0001015 354.3305   5.7679 15.21731242198541
1 45103U 20006BM  23244.72066007  .00013933  00000-0  62044-3 0  9992
2 45103  53.0584  43.8845 0001015 354.3305   5.7679 15.21731242198888
1 45103U 20006BM  23245.44309374  .00021050  00000-0  92770-3 0  9997
2 45103  53.0584  40.5621 0000796   6.8491 353.2515 15.21784048198651
1 45103U 20006BM  23245.44309374  .00021050  00000-0  92770-3 0  9997
2 45103  53.0584  40.5621 0000796   6.8491 353.2515 15.21784048198998
1 45103U 20006BM  23245.83714007  .00037225  00000-0  16241-2 0  9992
2 45103  53.0599  38.7520 0001019 351.6978   8.4001 15.21824546198718
1 45103U 20006BM  23245.83714007  .00037225  00000-0  16241-2 0  9992
2 45103  53.0599  38.7520 0001019 351.6978   8.4001 15.21824546199056
1 45103U 20006BM  23246.42820442  .00022255  00000-0  97828-3 0  9997
2 45103  53.0606  36.0343 0001005 356.6906   3.4083 15.21837777198807
1 45103U 20006BM  23246.42820442  .00022255  00000-0  97828-3 0  9997
2 45103  53.0606  36.0343 0001005 356.6906   3.4083 15.21837777199145
1 45103U 20006BM  23246.69089890  .00018120  00000-0  79957-3 0  9999
2 45103  53.0603  34.8267 0001041 355.7011   4.3976 15.21840929199188
1 45103U 20006BM  23247.41330373  .00010685  00000-0  47772-3 0  9993
2 45103  53.0610  31.5062 0001212 356.6457   3.4530 15.21847157198957
1 45103U 20006BM  23247.41330373  .00010685  00000-0  47772-3 0  9993
2 45103  53.0610  31.5062 0001212 356.6457   3.4530 15.21847157199295
1 45103U 20006BM  23248.39838219  .00014568  00000-0  64515-3 0  9991
2 45103  53.0614  26.9789 0001365   3.7249 356.3756 15.21881831199108
1 45103U 20006BM  23248.39838219  .00014568  00000-0  64515-3 0  9991
2 45103  53.0614  26.9789 0001365   3.7249 356.3756 15.21881831199445
1 45103U 20006BM  23249.38343527  .00017947  00000-0  79015-3 0  9999
2 45103  53.0620  22.4509 0001530   6.2321 353.8694 15.21924176199595
1 45103U 20006BM  23250.36845885  .00024168  00000-0  10566-2 0  9991
2 45103  53.0623  17.9224 0001700   4.0034 356.0975 15.21975796199408
1 45103U 20006BM  23250.36845885  .00024168  00000-0  10566-2 0  9991
2 45103  53.0623  17.9224 0001700   4.0034 356.0975 15.21975796199745
1 45103U 20006BM  23251.55044371  .00019933  00000-0  87300-3 0  9999
2 45103  53.0630  12.4874 0001796  11.8484 348.2554 15.22032181199585
1 45103U 20006BM  23251.74743615  .00027475  00000-0  11960-2 0  9995
2 45103  53.0633  11.5823 0002085   7.7403 352.3625 15.22052431199955
1 45103U 20006BM  23251.81309979  .00030213  00000-0  13130-2 0  9999
2 45103  53.0630  11.2804 0002197   6.3345 353.7678 15.22059127199628
1 45103U 20006BM  23252.60104830  .00051289  00000-0  22082-2 0  9998
2 45103  53.0633   7.6561 0002057  12.0219 348.0826 15.22128288199749
1 45103U 20006BM  23252.73236963  .00050086  00000-0  21564-2 0  9993
2 45103  53.0633   7.0519 0002076  12.4063 347.6983 15.22139173200105
1 45103U 20006BM  23253.45460544  .00071610  00000-0  30581-2 0  9992
2 45103  53.0638   3.7321 0002466  13.6499 346.4563 15.22248437200210
1 45103U 20006BM  23253.58591570  .00073411  00000-0  31322-2 0  9995
2 45103  53.0642   3.1282 0002492  13.4841 346.6221 15.22266685199892
1 45103U 20006BM  23254.43940673  .00057956  00000-0  24748-2 0  9992
2 45103  53.0660 359.2050 0002495  21.0515 339.0584 15.22351558200363
1 45103U 20006BM  23254.57070937  .00044311  00000-0  18991-2 0  9998
2 45103  53.0650 358.5980 0002643  13.8555 346.2513 15.22349328200043
1 45103U 20006BM  23254.57070937  .00044311  00000-0  18991-2 0  9998
2 45103  53.0650 358.5980 0002643  13.8555 346.2513 15.22349328200380
1 45103U 20006BM  23255.42414827  .00049998  00000-0  21337-2 0  9997
2 45103  53.0647 354.6721 0002822  15.0637 345.0443 15.22438540200519
1 45103U 20006BM  23255.55544220  .00050696  00000-0  21622-2 0  9996
2 45103  53.0648 354.0680 0002856  15.5019 344.6064 15.22452388200198
1 45103U 20006BM  23256.40881154  .00076740  00000-0  32415-2 0  9991
2 45103  53.0649 350.1419 0003058  17.3355 342.7745 15.22584585200666
1 45103U 20006BM  23256.54009325  .00063562  00000-0  26912-2 0  9991
2 45103  53.0651 349.5381 0003123  17.2320 342.8782 15.22595884200344
1 45103U 20006BM  23256.67137381  .00062522  00000-0  26465-2 0  9997
2 45103  53.0652 348.9342 0003140  17.9649 342.1457 15.22611923200700
1 45103U 20006BM  23256.73701379  .00054749  00000-0  23214-2 0  9999
2 45103  53.0651 348.6318 0003149  17.9414 342.1693 15.22616416200375
1 45103U 20006BM  23257.39339837  .00051214  00000-0  21696-2 0  9994
2 45103  53.0654 345.6114 0003298  19.2813 340.8308 15.22676424200814
1 45103U 20006BM  23257.52467224  .00050756  00000-0  21498-2 0  9991
2 45103  53.0656 345.0074 0003332  19.4790 340.6333 15.22686582200496
1 45103U 20006BM  23258.44361054  .00022563  00000-0  96876-3 0  9995
2 45103  53.0658 340.7786 0003140  21.3680 338.7447 15.22630943200637
1 45103U 20006BM  23258.44361054  .00022563  00000-0  96876-3 0  9995
2 45103  53.0658 340.7786 0003140  21.3680 338.7447 15.22630943200974
1 45103U 20006BM  23258.70617378  .00034406  00000-0  14681-2 0  9999
2 45103  53.0659 339.5709 0003102  29.3944 330.7226 15.22616688201018
1 45103U 20006BM  23259.42821547  .00029134  00000-0  12459-2 0  9997
2 45103  53.0666 336.2493 0003066  33.1224 326.9964 15.22624126201127
1 45103U 20006BM  23259.49385442  .00027182  00000-0  11636-2 0  9990
2 45103  53.0663 335.9465 0003049  36.8244 323.2961 15.22626455200798
1 45103U 20006BM  23260.41275235  .00083439  00000-0  35005-2 0  9995
2 45103  53.0660 331.7157 0002846  35.2455 324.8729 15.22773494201277
1 45103U 20006BM  23260.47838627  .00102050  00000-0  42664-2 0  9991
2 45103  53.0663 331.4143 0002888  34.8986 325.2200 15.22780784200944
1 45103U 20006BM  23260.60965356  .00081387  00000-0  34150-2 0  9996
2 45103  53.0672 330.8123 0003134  39.5529 320.5696 15.22780055201304
1 45103U 20006BM  23261.39723477  .00037251  00000-0  15780-2 0  9998
2 45103  53.0674 327.1870 0003085  42.7471 317.3765 15.22824439201420
1 45103U 20006BM  23261.46286566  .00037025  00000-0  15684-2 0  9991
2 45103  53.0677 326.8851 0003108  42.4116 317.7120 15.22827991201095
